{"type":"FeatureCollection","features":[{"type":"Feature","properties":{"id":"M5-L1","block":5,"lot":1},"geometry":{"type":"Polygon","coordinates":[[[-58.8029208,-27.5289555],[-58.8027712,-27.5289791],[-58.8028246,-27.5292444],[-58.8029742,-27.5292208],[-58.8029208,-27.5289555]]]}},{"type":"Feature","properties":{"id":"M5-L2","block":5,"lot":2},"geometry":{"type":"Polygon","coordinates":[[[-58.8031238,-27.5291971],[-58.8028246,-27.5292444],[-58.802846,-27.5293506],[-58.8031452,-27.5293032],[-58.8031238,-27.5291971]]]}},{"type":"Feature","properties":{"id":"M5-L3","block":5,"lot":3},"geometry":{"type":"Polygon","coordinates":[[[-58.8031452,-27.5293032],[-58.802846,-27.5293506],[-58.8028673,-27.5294567],[-58.8031665,-27.5294094],[-58.8031452,-27.5293032]]]}},{"type":"Feature","properties":{"id":"M5-L4","block":5,"lot":4},"geometry":{"type":"Polygon","coordinates":[[[-58.8031665,-27.5294094],[-58.8028673,-27.5294567],[-58.8028887,-27.5295628],[-58.8031879,-27.5295155],[-58.8031665,-27.5294094]]]}},{"type":"Feature","properties":{"id":"M5-L5","block":5,"lot":5},"geometry":{"type":"Polygon","coordinates":[[[-58.8031879,-27.5295155],[-58.8028887,-27.5295628],[-58.80291,-27.5296689],[-58.8032092,-27.5296216],[-58.8031879,-27.5295155]]]}},{"type":"Feature","properties":{"id":"M5-L6","block":5,"lot":6},"geometry":{"type":"Polygon","coordinates":[[[-58.8032092,-27.5296216],[-58.80291,-27.5296689],[-58.8029314,-27.5297751],[-58.8032306,-27.5297277],[-58.8032092,-27.5296216]]]}},{"type":"Feature","properties":{"id":"M5-L7","block":5,"lot":7},"geometry":{"type":"Polygon","coordinates":[[[-58.8032306,-27.5297277],[-58.8029314,-27.5297751],[-58.8029527,-27.5298812],[-58.8032519,-27.5298338],[-58.8032306,-27.5297277]]]}},{"type":"Feature","properties":{"id":"M5-L8","block":5,"lot":8},"geometry":{"type":"Polygon","coordinates":[[[-58.8032519,-27.5298338],[-58.8029527,-27.5298812],[-58.8029741,-27.5299873],[-58.8032733,-27.52994],[-58.8032519,-27.5298338]]]}},{"type":"Feature","properties":{"id":"M5-L9","block":5,"lot":9},"geometry":{"type":"Polygon","coordinates":[[[-58.8030952,-27.5299757],[-58.8029756,-27.5299947],[-58.8030218,-27.5302246],[-58.8031415,-27.5302057],[-58.8030952,-27.5299757]]]}},{"type":"Feature","properties":{"id":"M5-L10","block":5,"lot":10},"geometry":{"type":"Polygon","coordinates":[[[-58.8032149,-27.5299568],[-58.8030952,-27.5299757],[-58.8031415,-27.5302057],[-58.8032612,-27.5301867],[-58.8032149,-27.5299568]]]}},{"type":"Feature","properties":{"id":"M5-L11","block":5,"lot":11},"geometry":{"type":"Polygon","coordinates":[[[-58.8033346,-27.5299379],[-58.8032149,-27.5299568],[-58.8032612,-27.5301867],[-58.8033809,-27.5301678],[-58.8033346,-27.5299379]]]}},{"type":"Feature","properties":{"id":"M5-L12","block":5,"lot":12},"geometry":{"type":"Polygon","coordinates":[[[-58.8034543,-27.5299189],[-58.8033346,-27.5299379],[-58.8033809,-27.5301678],[-58.8035005,-27.5301489],[-58.8034543,-27.5299189]]]}},{"type":"Feature","properties":{"id":"M5-L13","block":5,"lot":13},"geometry":{"type":"Polygon","coordinates":[[[-58.8035739,-27.5299],[-58.8034543,-27.5299189],[-58.8035005,-27.5301489],[-58.8036202,-27.5301299],[-58.8035739,-27.5299]]]}},{"type":"Feature","properties":{"id":"M5-L14","block":5,"lot":14},"geometry":{"type":"Polygon","coordinates":[[[-58.8035526,-27.5297939],[-58.8032534,-27.5298412],[-58.8032748,-27.5299473],[-58.8035739,-27.5299],[-58.8035526,-27.5297939]]]}},{"type":"Feature","properties":{"id":"M5-L15","block":5,"lot":15},"geometry":{"type":"Polygon","coordinates":[[[-58.8035312,-27.5296877],[-58.803232,-27.5297351],[-58.8032534,-27.5298412],[-58.8035526,-27.5297939],[-58.8035312,-27.5296877]]]}},{"type":"Feature","properties":{"id":"M5-L16","block":5,"lot":16},"geometry":{"type":"Polygon","coordinates":[[[-58.8035099,-27.5295816],[-58.8032107,-27.529629],[-58.803232,-27.5297351],[-58.8035312,-27.5296877],[-58.8035099,-27.5295816]]]}},{"type":"Feature","properties":{"id":"M5-L17","block":5,"lot":17},"geometry":{"type":"Polygon","coordinates":[[[-58.8034885,-27.5294755],[-58.8031893,-27.5295228],[-58.8032107,-27.529629],[-58.8035099,-27.5295816],[-58.8034885,-27.5294755]]]}},{"type":"Feature","properties":{"id":"M5-L18","block":5,"lot":18},"geometry":{"type":"Polygon","coordinates":[[[-58.8034672,-27.5293694],[-58.803168,-27.5294167],[-58.8031893,-27.5295228],[-58.8034885,-27.5294755],[-58.8034672,-27.5293694]]]}},{"type":"Feature","properties":{"id":"M5-L19","block":5,"lot":19},"geometry":{"type":"Polygon","coordinates":[[[-58.8034458,-27.5292633],[-58.8031466,-27.5293106],[-58.803168,-27.5294167],[-58.8034672,-27.5293694],[-58.8034458,-27.5292633]]]}},{"type":"Feature","properties":{"id":"M5-L20","block":5,"lot":20},"geometry":{"type":"Polygon","coordinates":[[[-58.8034245,-27.5291571],[-58.8031253,-27.5292045],[-58.8031466,-27.5293106],[-58.8034458,-27.5292633],[-58.8034245,-27.5291571]]]}},{"type":"Feature","properties":{"id":"M5-L21","block":5,"lot":21},"geometry":{"type":"Polygon","coordinates":[[[-58.8033696,-27.5288845],[-58.80322,-27.5289081],[-58.8032734,-27.5291734],[-58.803423,-27.5291498],[-58.8033696,-27.5288845]]]}},{"type":"Feature","properties":{"id":"M5-L22","block":5,"lot":22},"geometry":{"type":"Polygon","coordinates":[[[-58.80322,-27.5289081],[-58.8030704,-27.5289318],[-58.8031238,-27.5291971],[-58.8032734,-27.5291734],[-58.80322,-27.5289081]]]}},{"type":"Feature","properties":{"id":"M5-L23","block":5,"lot":23},"geometry":{"type":"Polygon","coordinates":[[[-58.8030704,-27.5289318],[-58.8029208,-27.5289555],[-58.8029742,-27.5292208],[-58.8031238,-27.5291971],[-58.8030704,-27.5289318]]]}},{"type":"Feature","properties":{"id":"M8-L1","block":8,"lot":1},"geometry":{"type":"Polygon","coordinates":[[[-58.8037186,-27.5288292],[-58.803569,-27.5288529],[-58.8036224,-27.5291182],[-58.803772,-27.5290945],[-58.8037186,-27.5288292]]]}},{"type":"Feature","properties":{"id":"M8-L2","block":8,"lot":2},"geometry":{"type":"Polygon","coordinates":[[[-58.8039216,-27.5290709],[-58.8036224,-27.5291182],[-58.8036438,-27.5292243],[-58.803943,-27.529177],[-58.8039216,-27.5290709]]]}},{"type":"Feature","properties":{"id":"M8-L3","block":8,"lot":3},"geometry":{"type":"Polygon","coordinates":[[[-58.803943,-27.529177],[-58.8036438,-27.5292243],[-58.8036651,-27.5293305],[-58.8039643,-27.5292831],[-58.803943,-27.529177]]]}},{"type":"Feature","properties":{"id":"M8-L4","block":8,"lot":4},"geometry":{"type":"Polygon","coordinates":[[[-58.8039643,-27.5292831],[-58.8036651,-27.5293305],[-58.8036865,-27.5294366],[-58.8039857,-27.5293892],[-58.8039643,-27.5292831]]]}},{"type":"Feature","properties":{"id":"M8-L5","block":8,"lot":5},"geometry":{"type":"Polygon","coordinates":[[[-58.8039857,-27.5293892],[-58.8036865,-27.5294366],[-58.8037078,-27.5295427],[-58.804007,-27.5294954],[-58.8039857,-27.5293892]]]}},{"type":"Feature","properties":{"id":"M8-L6","block":8,"lot":6},"geometry":{"type":"Polygon","coordinates":[[[-58.804007,-27.5294954],[-58.8037078,-27.5295427],[-58.8037292,-27.5296488],[-58.8040284,-27.5296015],[-58.804007,-27.5294954]]]}},{"type":"Feature","properties":{"id":"M8-L7","block":8,"lot":7},"geometry":{"type":"Polygon","coordinates":[[[-58.8040284,-27.5296015],[-58.8037292,-27.5296488],[-58.8037505,-27.5297549],[-58.8040497,-27.5297076],[-58.8040284,-27.5296015]]]}},{"type":"Feature","properties":{"id":"M8-L8","block":8,"lot":8},"geometry":{"type":"Polygon","coordinates":[[[-58.8040497,-27.5297076],[-58.8037505,-27.5297549],[-58.8037719,-27.5298611],[-58.8040711,-27.5298137],[-58.8040497,-27.5297076]]]}},{"type":"Feature","properties":{"id":"M8-L9","block":8,"lot":9},"geometry":{"type":"Polygon","coordinates":[[[-58.8038931,-27.5298495],[-58.8037734,-27.5298684],[-58.8038197,-27.5300984],[-58.8039393,-27.5300794],[-58.8038931,-27.5298495]]]}},{"type":"Feature","properties":{"id":"M8-L10","block":8,"lot":10},"geometry":{"type":"Polygon","coordinates":[[[-58.8040127,-27.5298306],[-58.8038931,-27.5298495],[-58.8039393,-27.5300794],[-58.804059,-27.5300605],[-58.8040127,-27.5298306]]]}},{"type":"Feature","properties":{"id":"M8-L11","block":8,"lot":11},"geometry":{"type":"Polygon","coordinates":[[[-58.8041324,-27.5298116],[-58.8040127,-27.5298306],[-58.804059,-27.5300605],[-58.8041787,-27.5300416],[-58.8041324,-27.5298116]]]}},{"type":"Feature","properties":{"id":"M8-L12","block":8,"lot":12},"geometry":{"type":"Polygon","coordinates":[[[-58.8042521,-27.5297927],[-58.8041324,-27.5298116],[-58.8041787,-27.5300416],[-58.8042983,-27.5300226],[-58.8042521,-27.5297927]]]}},{"type":"Feature","properties":{"id":"M8-L13","block":8,"lot":13},"geometry":{"type":"Polygon","coordinates":[[[-58.8043717,-27.5297738],[-58.8042521,-27.5297927],[-58.8042983,-27.5300226],[-58.804418,-27.5300037],[-58.8043717,-27.5297738]]]}},{"type":"Feature","properties":{"id":"M8-L14","block":8,"lot":14},"geometry":{"type":"Polygon","coordinates":[[[-58.8043504,-27.5296676],[-58.8040512,-27.529715],[-58.8040726,-27.5298211],[-58.8043717,-27.5297738],[-58.8043504,-27.5296676]]]}},{"type":"Feature","properties":{"id":"M8-L15","block":8,"lot":15},"geometry":{"type":"Polygon","coordinates":[[[-58.804329,-27.5295615],[-58.8040299,-27.5296088],[-58.8040512,-27.529715],[-58.8043504,-27.5296676],[-58.804329,-27.5295615]]]}},{"type":"Feature","properties":{"id":"M8-L16","block":8,"lot":16},"geometry":{"type":"Polygon","coordinates":[[[-58.8043077,-27.5294554],[-58.8040085,-27.5295027],[-58.8040299,-27.5296088],[-58.804329,-27.5295615],[-58.8043077,-27.5294554]]]}},{"type":"Feature","properties":{"id":"M8-L17","block":8,"lot":17},"geometry":{"type":"Polygon","coordinates":[[[-58.8042863,-27.5293493],[-58.8039871,-27.5293966],[-58.8040085,-27.5295027],[-58.8043077,-27.5294554],[-58.8042863,-27.5293493]]]}},{"type":"Feature","properties":{"id":"M8-L18","block":8,"lot":18},"geometry":{"type":"Polygon","coordinates":[[[-58.804265,-27.5292431],[-58.8039658,-27.5292905],[-58.8039871,-27.5293966],[-58.8042863,-27.5293493],[-58.804265,-27.5292431]]]}},{"type":"Feature","properties":{"id":"M8-L19","block":8,"lot":19},"geometry":{"type":"Polygon","coordinates":[[[-58.8042436,-27.529137],[-58.8039444,-27.5291844],[-58.8039658,-27.5292905],[-58.804265,-27.5292431],[-58.8042436,-27.529137]]]}},{"type":"Feature","properties":{"id":"M8-L20","block":8,"lot":20},"geometry":{"type":"Polygon","coordinates":[[[-58.8042223,-27.5290309],[-58.8039231,-27.5290782],[-58.8039444,-27.5291844],[-58.8042436,-27.529137],[-58.8042223,-27.5290309]]]}},{"type":"Feature","properties":{"id":"M8-L21","block":8,"lot":21},"geometry":{"type":"Polygon","coordinates":[[[-58.8041674,-27.5287582],[-58.8040178,-27.5287819],[-58.8040712,-27.5290472],[-58.8042208,-27.5290235],[-58.8041674,-27.5287582]]]}},{"type":"Feature","properties":{"id":"M8-L22","block":8,"lot":22},"geometry":{"type":"Polygon","coordinates":[[[-58.8040178,-27.5287819],[-58.8038682,-27.5288056],[-58.8039216,-27.5290709],[-58.8040712,-27.5290472],[-58.8040178,-27.5287819]]]}},{"type":"Feature","properties":{"id":"M8-L23","block":8,"lot":23},"geometry":{"type":"Polygon","coordinates":[[[-58.8038682,-27.5288056],[-58.8037186,-27.5288292],[-58.803772,-27.5290945],[-58.8039216,-27.5290709],[-58.8038682,-27.5288056]]]}},{"type":"Feature","properties":{"id":"M12-L1","block":12,"lot":1},"geometry":{"type":"Polygon","coordinates":[[[-58.8045164,-27.528703],[-58.8043669,-27.5287267],[-58.8044202,-27.528992],[-58.8045698,-27.5289683],[-58.8045164,-27.528703]]]}},{"type":"Feature","properties":{"id":"M12-L2","block":12,"lot":2},"geometry":{"type":"Polygon","coordinates":[[[-58.8047194,-27.5289446],[-58.8044202,-27.528992],[-58.8044416,-27.5290981],[-58.8047408,-27.5290508],[-58.8047194,-27.5289446]]]}},{"type":"Feature","properties":{"id":"M12-L3","block":12,"lot":3},"geometry":{"type":"Polygon","coordinates":[[[-58.8047408,-27.5290508],[-58.8044416,-27.5290981],[-58.8044629,-27.5292042],[-58.8047621,-27.5291569],[-58.8047408,-27.5290508]]]}},{"type":"Feature","properties":{"id":"M12-L4","block":12,"lot":4},"geometry":{"type":"Polygon","coordinates":[[[-58.8047621,-27.5291569],[-58.8044629,-27.5292042],[-58.8044843,-27.5293103],[-58.8047835,-27.529263],[-58.8047621,-27.5291569]]]}},{"type":"Feature","properties":{"id":"M12-L5","block":12,"lot":5},"geometry":{"type":"Polygon","coordinates":[[[-58.8047835,-27.529263],[-58.8044843,-27.5293103],[-58.8045056,-27.5294165],[-58.8048048,-27.5293691],[-58.8047835,-27.529263]]]}},{"type":"Feature","properties":{"id":"M12-L6","block":12,"lot":6},"geometry":{"type":"Polygon","coordinates":[[[-58.8048048,-27.5293691],[-58.8045056,-27.5294165],[-58.804527,-27.5295226],[-58.8048262,-27.5294752],[-58.8048048,-27.5293691]]]}},{"type":"Feature","properties":{"id":"M12-L7","block":12,"lot":7},"geometry":{"type":"Polygon","coordinates":[[[-58.8048262,-27.5294752],[-58.804527,-27.5295226],[-58.8045484,-27.5296287],[-58.8048475,-27.5295814],[-58.8048262,-27.5294752]]]}},{"type":"Feature","properties":{"id":"M12-L8","block":12,"lot":8},"geometry":{"type":"Polygon","coordinates":[[[-58.8048475,-27.5295814],[-58.8045484,-27.5296287],[-58.8045697,-27.5297348],[-58.8048689,-27.5296875],[-58.8048475,-27.5295814]]]}},{"type":"Feature","properties":{"id":"M12-L9","block":12,"lot":9},"geometry":{"type":"Polygon","coordinates":[[[-58.8046909,-27.5297233],[-58.8045712,-27.5297422],[-58.8046175,-27.5299721],[-58.8047371,-27.5299532],[-58.8046909,-27.5297233]]]}},{"type":"Feature","properties":{"id":"M12-L10","block":12,"lot":10},"geometry":{"type":"Polygon","coordinates":[[[-58.8048105,-27.5297043],[-58.8046909,-27.5297233],[-58.8047371,-27.5299532],[-58.8048568,-27.5299342],[-58.8048105,-27.5297043]]]}},{"type":"Feature","properties":{"id":"M12-L11","block":12,"lot":11},"geometry":{"type":"Polygon","coordinates":[[[-58.8049302,-27.5296854],[-58.8048105,-27.5297043],[-58.8048568,-27.5299342],[-58.8049765,-27.5299153],[-58.8049302,-27.5296854]]]}},{"type":"Feature","properties":{"id":"M12-L12","block":12,"lot":12},"geometry":{"type":"Polygon","coordinates":[[[-58.8050499,-27.5296664],[-58.8049302,-27.5296854],[-58.8049765,-27.5299153],[-58.8050961,-27.5298964],[-58.8050499,-27.5296664]]]}},{"type":"Feature","properties":{"id":"M12-L13","block":12,"lot":13},"geometry":{"type":"Polygon","coordinates":[[[-58.8051695,-27.5296475],[-58.8050499,-27.5296664],[-58.8050961,-27.5298964],[-58.8052158,-27.5298774],[-58.8051695,-27.5296475]]]}},{"type":"Feature","properties":{"id":"M12-L14","block":12,"lot":14},"geometry":{"type":"Polygon","coordinates":[[[-58.8051482,-27.5295414],[-58.804849,-27.5295887],[-58.8048704,-27.5296949],[-58.8051695,-27.5296475],[-58.8051482,-27.5295414]]]}},{"type":"Feature","properties":{"id":"M12-L15","block":12,"lot":15},"geometry":{"type":"Polygon","coordinates":[[[-58.8051268,-27.5294353],[-58.8048277,-27.5294826],[-58.804849,-27.5295887],[-58.8051482,-27.5295414],[-58.8051268,-27.5294353]]]}},{"type":"Feature","properties":{"id":"M12-L16","block":12,"lot":16},"geometry":{"type":"Polygon","coordinates":[[[-58.8051055,-27.5293291],[-58.8048063,-27.5293765],[-58.8048277,-27.5294826],[-58.8051268,-27.5294353],[-58.8051055,-27.5293291]]]}},{"type":"Feature","properties":{"id":"M12-L17","block":12,"lot":17},"geometry":{"type":"Polygon","coordinates":[[[-58.8050841,-27.529223],[-58.804785,-27.5292704],[-58.8048063,-27.5293765],[-58.8051055,-27.5293291],[-58.8050841,-27.529223]]]}},{"type":"Feature","properties":{"id":"M12-L18","block":12,"lot":18},"geometry":{"type":"Polygon","coordinates":[[[-58.8050628,-27.5291169],[-58.8047636,-27.5291642],[-58.804785,-27.5292704],[-58.8050841,-27.529223],[-58.8050628,-27.5291169]]]}},{"type":"Feature","properties":{"id":"M12-L19","block":12,"lot":19},"geometry":{"type":"Polygon","coordinates":[[[-58.8050414,-27.5290108],[-58.8047422,-27.5290581],[-58.8047636,-27.5291642],[-58.8050628,-27.5291169],[-58.8050414,-27.5290108]]]}},{"type":"Feature","properties":{"id":"M12-L20","block":12,"lot":20},"geometry":{"type":"Polygon","coordinates":[[[-58.8050201,-27.5289047],[-58.8047209,-27.528952],[-58.8047422,-27.5290581],[-58.8050414,-27.5290108],[-58.8050201,-27.5289047]]]}},{"type":"Feature","properties":{"id":"M12-L21","block":12,"lot":21},"geometry":{"type":"Polygon","coordinates":[[[-58.8049652,-27.528632],[-58.8048156,-27.5286557],[-58.804869,-27.528921],[-58.8050186,-27.5288973],[-58.8049652,-27.528632]]]}},{"type":"Feature","properties":{"id":"M12-L22","block":12,"lot":22},"geometry":{"type":"Polygon","coordinates":[[[-58.8048156,-27.5286557],[-58.804666,-27.5286793],[-58.8047194,-27.5289446],[-58.804869,-27.528921],[-58.8048156,-27.5286557]]]}},{"type":"Feature","properties":{"id":"M12-L23","block":12,"lot":23},"geometry":{"type":"Polygon","coordinates":[[[-58.804666,-27.5286793],[-58.8045164,-27.528703],[-58.8045698,-27.5289683],[-58.8047194,-27.5289446],[-58.804666,-27.5286793]]]}},{"type":"Feature","properties":{"id":"M7-L1","block":7,"lot":1},"geometry":{"type":"Polygon","coordinates":[[[-58.8036669,-27.5328167],[-58.8035472,-27.5328356],[-58.8035935,-27.5330655],[-58.8037132,-27.5330466],[-58.8036669,-27.5328167]]]}},{"type":"Feature","properties":{"id":"M7-L2","block":7,"lot":2},"geometry":{"type":"Polygon","coordinates":[[[-58.8036962,-27.5320417],[-58.803397,-27.5320891],[-58.8034191,-27.5321989],[-58.8037183,-27.5321516],[-58.8036962,-27.5320417]]]}},{"type":"Feature","properties":{"id":"M7-L3","block":7,"lot":3},"geometry":{"type":"Polygon","coordinates":[[[-58.803825,-27.5326822],[-58.8035259,-27.5327295],[-58.8035472,-27.5328356],[-58.8038464,-27.5327883],[-58.803825,-27.5326822]]]}},{"type":"Feature","properties":{"id":"M7-L4","block":7,"lot":4},"geometry":{"type":"Polygon","coordinates":[[[-58.8038037,-27.532576],[-58.8035045,-27.5326234],[-58.8035259,-27.5327295],[-58.803825,-27.5326822],[-58.8038037,-27.532576]]]}},{"type":"Feature","properties":{"id":"M7-L5","block":7,"lot":5},"geometry":{"type":"Polygon","coordinates":[[[-58.8037823,-27.5324699],[-58.8034832,-27.5325173],[-58.8035045,-27.5326234],[-58.8038037,-27.532576],[-58.8037823,-27.5324699]]]}},{"type":"Feature","properties":{"id":"M7-L6","block":7,"lot":6},"geometry":{"type":"Polygon","coordinates":[[[-58.803761,-27.5323638],[-58.8034618,-27.5324111],[-58.8034832,-27.5325173],[-58.8037823,-27.5324699],[-58.803761,-27.5323638]]]}},{"type":"Feature","properties":{"id":"M7-L7","block":7,"lot":7},"geometry":{"type":"Polygon","coordinates":[[[-58.8037396,-27.5322577],[-58.8034405,-27.532305],[-58.8034618,-27.5324111],[-58.803761,-27.5323638],[-58.8037396,-27.5322577]]]}},{"type":"Feature","properties":{"id":"M7-L8","block":7,"lot":8},"geometry":{"type":"Polygon","coordinates":[[[-58.8037183,-27.5321516],[-58.8034191,-27.5321989],[-58.8034405,-27.532305],[-58.8037396,-27.5322577],[-58.8037183,-27.5321516]]]}},{"type":"Feature","properties":{"id":"M7-L9","block":7,"lot":9},"geometry":{"type":"Polygon","coordinates":[[[-58.8034932,-27.5318001],[-58.8033436,-27.5318238],[-58.803397,-27.5320891],[-58.8035466,-27.5320654],[-58.8034932,-27.5318001]]]}},{"type":"Feature","properties":{"id":"M7-L10","block":7,"lot":10},"geometry":{"type":"Polygon","coordinates":[[[-58.8036428,-27.5317764],[-58.8034932,-27.5318001],[-58.8035466,-27.5320654],[-58.8036962,-27.5320417],[-58.8036428,-27.5317764]]]}},{"type":"Feature","properties":{"id":"M7-L11","block":7,"lot":11},"geometry":{"type":"Polygon","coordinates":[[[-58.8037924,-27.5317528],[-58.8036428,-27.5317764],[-58.8036962,-27.5320417],[-58.8038458,-27.5320181],[-58.8037924,-27.5317528]]]}},{"type":"Feature","properties":{"id":"M7-L12","block":7,"lot":12},"geometry":{"type":"Polygon","coordinates":[[[-58.803942,-27.5317291],[-58.8037924,-27.5317528],[-58.8038458,-27.5320181],[-58.8039954,-27.5319944],[-58.803942,-27.5317291]]]}},{"type":"Feature","properties":{"id":"M7-L13","block":7,"lot":13},"geometry":{"type":"Polygon","coordinates":[[[-58.8039954,-27.5319944],[-58.8036962,-27.5320417],[-58.8037175,-27.5321479],[-58.8040167,-27.5321005],[-58.8039954,-27.5319944]]]}},{"type":"Feature","properties":{"id":"M7-L14","block":7,"lot":14},"geometry":{"type":"Polygon","coordinates":[[[-58.8040167,-27.5321005],[-58.8037175,-27.5321479],[-58.8037389,-27.532254],[-58.8040381,-27.5322066],[-58.8040167,-27.5321005]]]}},{"type":"Feature","properties":{"id":"M7-L15","block":7,"lot":15},"geometry":{"type":"Polygon","coordinates":[[[-58.8040381,-27.5322066],[-58.8037389,-27.532254],[-58.8037602,-27.5323601],[-58.8040594,-27.5323128],[-58.8040381,-27.5322066]]]}},{"type":"Feature","properties":{"id":"M7-L16","block":7,"lot":16},"geometry":{"type":"Polygon","coordinates":[[[-58.8040594,-27.5323128],[-58.8037602,-27.5323601],[-58.8037816,-27.5324662],[-58.8040808,-27.5324189],[-58.8040594,-27.5323128]]]}},{"type":"Feature","properties":{"id":"M7-L17","block":7,"lot":17},"geometry":{"type":"Polygon","coordinates":[[[-58.8040808,-27.5324189],[-58.8037816,-27.5324662],[-58.803803,-27.5325724],[-58.8041021,-27.532525],[-58.8040808,-27.5324189]]]}},{"type":"Feature","properties":{"id":"M7-L18","block":7,"lot":18},"geometry":{"type":"Polygon","coordinates":[[[-58.8041021,-27.532525],[-58.803803,-27.5325724],[-58.8038243,-27.5326785],[-58.8041235,-27.5326311],[-58.8041021,-27.532525]]]}},{"type":"Feature","properties":{"id":"M7-L19","block":7,"lot":19},"geometry":{"type":"Polygon","coordinates":[[[-58.8041235,-27.5326311],[-58.8038243,-27.5326785],[-58.8038457,-27.5327846],[-58.8041448,-27.5327373],[-58.8041235,-27.5326311]]]}},{"type":"Feature","properties":{"id":"M7-L20","block":7,"lot":20},"geometry":{"type":"Polygon","coordinates":[[[-58.8041456,-27.5327409],[-58.8040259,-27.5327599],[-58.8040722,-27.5329898],[-58.8041918,-27.5329709],[-58.8041456,-27.5327409]]]}},{"type":"Feature","properties":{"id":"M7-L21","block":7,"lot":21},"geometry":{"type":"Polygon","coordinates":[[[-58.8040259,-27.5327599],[-58.8039062,-27.5327788],[-58.8039525,-27.5330087],[-58.8040722,-27.5329898],[-58.8040259,-27.5327599]]]}},{"type":"Feature","properties":{"id":"M7-L22","block":7,"lot":22},"geometry":{"type":"Polygon","coordinates":[[[-58.8039062,-27.5327788],[-58.8037866,-27.5327977],[-58.8038328,-27.5330277],[-58.8039525,-27.5330087],[-58.8039062,-27.5327788]]]}},{"type":"Feature","properties":{"id":"M7-L23","block":7,"lot":23},"geometry":{"type":"Polygon","coordinates":[[[-58.8037866,-27.5327977],[-58.8036669,-27.5328167],[-58.8037132,-27.5330466],[-58.8038328,-27.5330277],[-58.8037866,-27.5327977]]]}},{"type":"Feature","properties":{"id":"M10-L1","block":10,"lot":1},"geometry":{"type":"Polygon","coordinates":[[[-58.8044647,-27.5326904],[-58.804345,-27.5327094],[-58.8043913,-27.5329393],[-58.804511,-27.5329204],[-58.8044647,-27.5326904]]]}},{"type":"Feature","properties":{"id":"M10-L2","block":10,"lot":2},"geometry":{"type":"Polygon","coordinates":[[[-58.804494,-27.5319155],[-58.8041948,-27.5319628],[-58.8042169,-27.5320727],[-58.8045161,-27.5320253],[-58.804494,-27.5319155]]]}},{"type":"Feature","properties":{"id":"M10-L3","block":10,"lot":3},"geometry":{"type":"Polygon","coordinates":[[[-58.8046229,-27.5325559],[-58.8043237,-27.5326033],[-58.804345,-27.5327094],[-58.8046442,-27.532662],[-58.8046229,-27.5325559]]]}},{"type":"Feature","properties":{"id":"M10-L4","block":10,"lot":4},"geometry":{"type":"Polygon","coordinates":[[[-58.8046015,-27.5324498],[-58.8043023,-27.5324971],[-58.8043237,-27.5326033],[-58.8046229,-27.5325559],[-58.8046015,-27.5324498]]]}},{"type":"Feature","properties":{"id":"M10-L5","block":10,"lot":5},"geometry":{"type":"Polygon","coordinates":[[[-58.8045801,-27.5323437],[-58.804281,-27.532391],[-58.8043023,-27.5324971],[-58.8046015,-27.5324498],[-58.8045801,-27.5323437]]]}},{"type":"Feature","properties":{"id":"M10-L6","block":10,"lot":6},"geometry":{"type":"Polygon","coordinates":[[[-58.8045588,-27.5322376],[-58.8042596,-27.5322849],[-58.804281,-27.532391],[-58.8045801,-27.5323437],[-58.8045588,-27.5322376]]]}},{"type":"Feature","properties":{"id":"M10-L7","block":10,"lot":7},"geometry":{"type":"Polygon","coordinates":[[[-58.8045374,-27.5321314],[-58.8042383,-27.5321788],[-58.8042596,-27.5322849],[-58.8045588,-27.5322376],[-58.8045374,-27.5321314]]]}},{"type":"Feature","properties":{"id":"M10-L8","block":10,"lot":8},"geometry":{"type":"Polygon","coordinates":[[[-58.8045161,-27.5320253],[-58.8042169,-27.5320727],[-58.8042383,-27.5321788],[-58.8045374,-27.5321314],[-58.8045161,-27.5320253]]]}},{"type":"Feature","properties":{"id":"M10-L9","block":10,"lot":9},"geometry":{"type":"Polygon","coordinates":[[[-58.804291,-27.5316739],[-58.8041414,-27.5316975],[-58.8041948,-27.5319628],[-58.8043444,-27.5319392],[-58.804291,-27.5316739]]]}},{"type":"Feature","properties":{"id":"M10-L10","block":10,"lot":10},"geometry":{"type":"Polygon","coordinates":[[[-58.8044406,-27.5316502],[-58.804291,-27.5316739],[-58.8043444,-27.5319392],[-58.804494,-27.5319155],[-58.8044406,-27.5316502]]]}},{"type":"Feature","properties":{"id":"M10-L11","block":10,"lot":11},"geometry":{"type":"Polygon","coordinates":[[[-58.8045902,-27.5316265],[-58.8044406,-27.5316502],[-58.804494,-27.5319155],[-58.8046436,-27.5318918],[-58.8045902,-27.5316265]]]}},{"type":"Feature","properties":{"id":"M10-L12","block":10,"lot":12},"geometry":{"type":"Polygon","coordinates":[[[-58.8047398,-27.5316029],[-58.8045902,-27.5316265],[-58.8046436,-27.5318918],[-58.8047932,-27.5318682],[-58.8047398,-27.5316029]]]}},{"type":"Feature","properties":{"id":"M10-L13","block":10,"lot":13},"geometry":{"type":"Polygon","coordinates":[[[-58.8047932,-27.5318682],[-58.804494,-27.5319155],[-58.8045153,-27.5320216],[-58.8048145,-27.5319743],[-58.8047932,-27.5318682]]]}},{"type":"Feature","properties":{"id":"M10-L14","block":10,"lot":14},"geometry":{"type":"Polygon","coordinates":[[[-58.8048145,-27.5319743],[-58.8045153,-27.5320216],[-58.8045367,-27.5321278],[-58.8048359,-27.5320804],[-58.8048145,-27.5319743]]]}},{"type":"Feature","properties":{"id":"M10-L15","block":10,"lot":15},"geometry":{"type":"Polygon","coordinates":[[[-58.8048359,-27.5320804],[-58.8045367,-27.5321278],[-58.8045581,-27.5322339],[-58.8048572,-27.5321865],[-58.8048359,-27.5320804]]]}},{"type":"Feature","properties":{"id":"M10-L16","block":10,"lot":16},"geometry":{"type":"Polygon","coordinates":[[[-58.8048572,-27.5321865],[-58.8045581,-27.5322339],[-58.8045794,-27.53234],[-58.8048786,-27.5322927],[-58.8048572,-27.5321865]]]}},{"type":"Feature","properties":{"id":"M10-L17","block":10,"lot":17},"geometry":{"type":"Polygon","coordinates":[[[-58.8048786,-27.5322927],[-58.8045794,-27.53234],[-58.8046008,-27.5324461],[-58.8048999,-27.5323988],[-58.8048786,-27.5322927]]]}},{"type":"Feature","properties":{"id":"M10-L18","block":10,"lot":18},"geometry":{"type":"Polygon","coordinates":[[[-58.8048999,-27.5323988],[-58.8046008,-27.5324461],[-58.8046221,-27.5325522],[-58.8049213,-27.5325049],[-58.8048999,-27.5323988]]]}},{"type":"Feature","properties":{"id":"M10-L19","block":10,"lot":19},"geometry":{"type":"Polygon","coordinates":[[[-58.8049213,-27.5325049],[-58.8046221,-27.5325522],[-58.8046435,-27.5326584],[-58.8049426,-27.532611],[-58.8049213,-27.5325049]]]}},{"type":"Feature","properties":{"id":"M10-L20","block":10,"lot":20},"geometry":{"type":"Polygon","coordinates":[[[-58.8049434,-27.5326147],[-58.8048237,-27.5326336],[-58.80487,-27.5328636],[-58.8049896,-27.5328446],[-58.8049434,-27.5326147]]]}},{"type":"Feature","properties":{"id":"M10-L21","block":10,"lot":21},"geometry":{"type":"Polygon","coordinates":[[[-58.8048237,-27.5326336],[-58.804704,-27.5326526],[-58.8047503,-27.5328825],[-58.80487,-27.5328636],[-58.8048237,-27.5326336]]]}},{"type":"Feature","properties":{"id":"M10-L22","block":10,"lot":22},"geometry":{"type":"Polygon","coordinates":[[[-58.804704,-27.5326526],[-58.8045844,-27.5326715],[-58.8046306,-27.5329014],[-58.8047503,-27.5328825],[-58.804704,-27.5326526]]]}},{"type":"Feature","properties":{"id":"M10-L23","block":10,"lot":23},"geometry":{"type":"Polygon","coordinates":[[[-58.8045844,-27.5326715],[-58.8044647,-27.5326904],[-58.804511,-27.5329204],[-58.8046306,-27.5329014],[-58.8045844,-27.5326715]]]}},{"type":"Feature","properties":{"id":"M14-L1","block":14,"lot":1},"geometry":{"type":"Polygon","coordinates":[[[-58.8052625,-27.5325642],[-58.8051428,-27.5325831],[-58.8051891,-27.5328131],[-58.8053088,-27.5327941],[-58.8052625,-27.5325642]]]}},{"type":"Feature","properties":{"id":"M14-L2","block":14,"lot":2},"geometry":{"type":"Polygon","coordinates":[[[-58.8052918,-27.5317893],[-58.8049926,-27.5318366],[-58.8050147,-27.5319464],[-58.8053139,-27.5318991],[-58.8052918,-27.5317893]]]}},{"type":"Feature","properties":{"id":"M14-L3","block":14,"lot":3},"geometry":{"type":"Polygon","coordinates":[[[-58.8054207,-27.5324297],[-58.8051215,-27.532477],[-58.8051428,-27.5325831],[-58.805442,-27.5325358],[-58.8054207,-27.5324297]]]}},{"type":"Feature","properties":{"id":"M14-L4","block":14,"lot":4},"geometry":{"type":"Polygon","coordinates":[[[-58.8053993,-27.5323236],[-58.8051001,-27.5323709],[-58.8051215,-27.532477],[-58.8054207,-27.5324297],[-58.8053993,-27.5323236]]]}},{"type":"Feature","properties":{"id":"M14-L5","block":14,"lot":5},"geometry":{"type":"Polygon","coordinates":[[[-58.805378,-27.5322174],[-58.8050788,-27.5322648],[-58.8051001,-27.5323709],[-58.8053993,-27.5323236],[-58.805378,-27.5322174]]]}},{"type":"Feature","properties":{"id":"M14-L6","block":14,"lot":6},"geometry":{"type":"Polygon","coordinates":[[[-58.8053566,-27.5321113],[-58.8050574,-27.5321587],[-58.8050788,-27.5322648],[-58.805378,-27.5322174],[-58.8053566,-27.5321113]]]}},{"type":"Feature","properties":{"id":"M14-L7","block":14,"lot":7},"geometry":{"type":"Polygon","coordinates":[[[-58.8053352,-27.5320052],[-58.8050361,-27.5320525],[-58.8050574,-27.5321587],[-58.8053566,-27.5321113],[-58.8053352,-27.5320052]]]}},{"type":"Feature","properties":{"id":"M14-L8","block":14,"lot":8},"geometry":{"type":"Polygon","coordinates":[[[-58.8053139,-27.5318991],[-58.8050147,-27.5319464],[-58.8050361,-27.5320525],[-58.8053352,-27.5320052],[-58.8053139,-27.5318991]]]}},{"type":"Feature","properties":{"id":"M14-L9","block":14,"lot":9},"geometry":{"type":"Polygon","coordinates":[[[-58.8050888,-27.5315476],[-58.8049392,-27.5315713],[-58.8049926,-27.5318366],[-58.8051422,-27.5318129],[-58.8050888,-27.5315476]]]}},{"type":"Feature","properties":{"id":"M14-L10","block":14,"lot":10},"geometry":{"type":"Polygon","coordinates":[[[-58.8052384,-27.531524],[-58.8050888,-27.5315476],[-58.8051422,-27.5318129],[-58.8052918,-27.5317893],[-58.8052384,-27.531524]]]}},{"type":"Feature","properties":{"id":"M14-L11","block":14,"lot":11},"geometry":{"type":"Polygon","coordinates":[[[-58.805388,-27.5315003],[-58.8052384,-27.531524],[-58.8052918,-27.5317893],[-58.8054414,-27.5317656],[-58.805388,-27.5315003]]]}},{"type":"Feature","properties":{"id":"M14-L12","block":14,"lot":12},"geometry":{"type":"Polygon","coordinates":[[[-58.8055376,-27.5314766],[-58.805388,-27.5315003],[-58.8054414,-27.5317656],[-58.805591,-27.5317419],[-58.8055376,-27.5314766]]]}},{"type":"Feature","properties":{"id":"M14-L13","block":14,"lot":13},"geometry":{"type":"Polygon","coordinates":[[[-58.805591,-27.5317419],[-58.8052918,-27.5317893],[-58.8053132,-27.5318954],[-58.8056123,-27.5318481],[-58.805591,-27.5317419]]]}},{"type":"Feature","properties":{"id":"M14-L14","block":14,"lot":14},"geometry":{"type":"Polygon","coordinates":[[[-58.8056123,-27.5318481],[-58.8053132,-27.5318954],[-58.8053345,-27.5320015],[-58.8056337,-27.5319542],[-58.8056123,-27.5318481]]]}},{"type":"Feature","properties":{"id":"M14-L15","block":14,"lot":15},"geometry":{"type":"Polygon","coordinates":[[[-58.8056337,-27.5319542],[-58.8053345,-27.5320015],[-58.8053559,-27.5321076],[-58.805655,-27.5320603],[-58.8056337,-27.5319542]]]}},{"type":"Feature","properties":{"id":"M14-L16","block":14,"lot":16},"geometry":{"type":"Polygon","coordinates":[[[-58.805655,-27.5320603],[-58.8053559,-27.5321076],[-58.8053772,-27.5322138],[-58.8056764,-27.5321664],[-58.805655,-27.5320603]]]}},{"type":"Feature","properties":{"id":"M14-L17","block":14,"lot":17},"geometry":{"type":"Polygon","coordinates":[[[-58.8056764,-27.5321664],[-58.8053772,-27.5322138],[-58.8053986,-27.5323199],[-58.8056977,-27.5322725],[-58.8056764,-27.5321664]]]}},{"type":"Feature","properties":{"id":"M14-L18","block":14,"lot":18},"geometry":{"type":"Polygon","coordinates":[[[-58.8056977,-27.5322725],[-58.8053986,-27.5323199],[-58.8054199,-27.532426],[-58.8057191,-27.5323787],[-58.8056977,-27.5322725]]]}},{"type":"Feature","properties":{"id":"M14-L19","block":14,"lot":19},"geometry":{"type":"Polygon","coordinates":[[[-58.8057191,-27.5323787],[-58.8054199,-27.532426],[-58.8054413,-27.5325321],[-58.8057404,-27.5324848],[-58.8057191,-27.5323787]]]}},{"type":"Feature","properties":{"id":"M14-L20","block":14,"lot":20},"geometry":{"type":"Polygon","coordinates":[[[-58.8057412,-27.5324885],[-58.8056215,-27.5325074],[-58.8056678,-27.5327373],[-58.8057875,-27.5327184],[-58.8057412,-27.5324885]]]}},{"type":"Feature","properties":{"id":"M14-L21","block":14,"lot":21},"geometry":{"type":"Polygon","coordinates":[[[-58.8056215,-27.5325074],[-58.8055018,-27.5325263],[-58.8055481,-27.5327563],[-58.8056678,-27.5327373],[-58.8056215,-27.5325074]]]}},{"type":"Feature","properties":{"id":"M14-L22","block":14,"lot":22},"geometry":{"type":"Polygon","coordinates":[[[-58.8055018,-27.5325263],[-58.8053822,-27.5325453],[-58.8054284,-27.5327752],[-58.8055481,-27.5327563],[-58.8055018,-27.5325263]]]}},{"type":"Feature","properties":{"id":"M14-L23","block":14,"lot":23},"geometry":{"type":"Polygon","coordinates":[[[-58.8053822,-27.5325453],[-58.8052625,-27.5325642],[-58.8053088,-27.5327941],[-58.8054284,-27.5327752],[-58.8053822,-27.5325453]]]}},{"type":"Feature","properties":{"id":"M6-L1","block":6,"lot":1},"geometry":{"type":"Polygon","coordinates":[[[-58.8031771,-27.5303825],[-58.8030574,-27.5304015],[-58.8031073,-27.5306491],[-58.8032269,-27.5306301],[-58.8031771,-27.5303825]]]}},{"type":"Feature","properties":{"id":"M6-L2","block":6,"lot":2},"geometry":{"type":"Polygon","coordinates":[[[-58.8034064,-27.5306017],[-58.8031073,-27.5306491],[-58.8031286,-27.5307552],[-58.8034278,-27.5307079],[-58.8034064,-27.5306017]]]}},{"type":"Feature","properties":{"id":"M6-L3","block":6,"lot":3},"geometry":{"type":"Polygon","coordinates":[[[-58.8034278,-27.5307079],[-58.8031286,-27.5307552],[-58.80315,-27.5308613],[-58.8034491,-27.530814],[-58.8034278,-27.5307079]]]}},{"type":"Feature","properties":{"id":"M6-L4","block":6,"lot":4},"geometry":{"type":"Polygon","coordinates":[[[-58.8034491,-27.530814],[-58.80315,-27.5308613],[-58.8031713,-27.5309674],[-58.8034705,-27.5309201],[-58.8034491,-27.530814]]]}},{"type":"Feature","properties":{"id":"M6-L5","block":6,"lot":5},"geometry":{"type":"Polygon","coordinates":[[[-58.8034705,-27.5309201],[-58.8031713,-27.5309674],[-58.8031927,-27.5310736],[-58.8034918,-27.5310262],[-58.8034705,-27.5309201]]]}},{"type":"Feature","properties":{"id":"M6-L6","block":6,"lot":6},"geometry":{"type":"Polygon","coordinates":[[[-58.8034918,-27.5310262],[-58.8031927,-27.5310736],[-58.803214,-27.5311797],[-58.8035132,-27.5311323],[-58.8034918,-27.5310262]]]}},{"type":"Feature","properties":{"id":"M6-L7","block":6,"lot":7},"geometry":{"type":"Polygon","coordinates":[[[-58.8035132,-27.5311323],[-58.803214,-27.5311797],[-58.8032354,-27.5312858],[-58.8035346,-27.5312385],[-58.8035132,-27.5311323]]]}},{"type":"Feature","properties":{"id":"M6-L8","block":6,"lot":8},"geometry":{"type":"Polygon","coordinates":[[[-58.8035346,-27.5312385],[-58.8032354,-27.5312858],[-58.8032567,-27.5313919],[-58.8035559,-27.5313446],[-58.8035346,-27.5312385]]]}},{"type":"Feature","properties":{"id":"M6-L9","block":6,"lot":9},"geometry":{"type":"Polygon","coordinates":[[[-58.8033771,-27.5313767],[-58.8032575,-27.5313956],[-58.8033073,-27.5316432],[-58.803427,-27.5316243],[-58.8033771,-27.5313767]]]}},{"type":"Feature","properties":{"id":"M6-L10","block":6,"lot":10},"geometry":{"type":"Polygon","coordinates":[[[-58.8034968,-27.5313577],[-58.8033771,-27.5313767],[-58.803427,-27.5316243],[-58.8035466,-27.5316054],[-58.8034968,-27.5313577]]]}},{"type":"Feature","properties":{"id":"M6-L11","block":6,"lot":11},"geometry":{"type":"Polygon","coordinates":[[[-58.8036165,-27.5313388],[-58.8034968,-27.5313577],[-58.8035466,-27.5316054],[-58.8036663,-27.5315864],[-58.8036165,-27.5313388]]]}},{"type":"Feature","properties":{"id":"M6-L12","block":6,"lot":12},"geometry":{"type":"Polygon","coordinates":[[[-58.8037362,-27.5313199],[-58.8036165,-27.5313388],[-58.8036663,-27.5315864],[-58.803786,-27.5315675],[-58.8037362,-27.5313199]]]}},{"type":"Feature","properties":{"id":"M6-L13","block":6,"lot":13},"geometry":{"type":"Polygon","coordinates":[[[-58.8038558,-27.5313009],[-58.8037362,-27.5313199],[-58.803786,-27.5315675],[-58.8039057,-27.5315486],[-58.8038558,-27.5313009]]]}},{"type":"Feature","properties":{"id":"M6-L14","block":6,"lot":14},"geometry":{"type":"Polygon","coordinates":[[[-58.8038345,-27.5311948],[-58.8035353,-27.5312422],[-58.8035566,-27.5313483],[-58.8038558,-27.5313009],[-58.8038345,-27.5311948]]]}},{"type":"Feature","properties":{"id":"M6-L15","block":6,"lot":15},"geometry":{"type":"Polygon","coordinates":[[[-58.8038131,-27.5310887],[-58.8035139,-27.531136],[-58.8035353,-27.5312422],[-58.8038345,-27.5311948],[-58.8038131,-27.5310887]]]}},{"type":"Feature","properties":{"id":"M6-L16","block":6,"lot":16},"geometry":{"type":"Polygon","coordinates":[[[-58.8037918,-27.5309826],[-58.8034926,-27.5310299],[-58.8035139,-27.531136],[-58.8038131,-27.5310887],[-58.8037918,-27.5309826]]]}},{"type":"Feature","properties":{"id":"M6-L17","block":6,"lot":17},"geometry":{"type":"Polygon","coordinates":[[[-58.8037704,-27.5308764],[-58.8034712,-27.5309238],[-58.8034926,-27.5310299],[-58.8037918,-27.5309826],[-58.8037704,-27.5308764]]]}},{"type":"Feature","properties":{"id":"M6-L18","block":6,"lot":18},"geometry":{"type":"Polygon","coordinates":[[[-58.8037491,-27.5307703],[-58.8034499,-27.5308177],[-58.8034712,-27.5309238],[-58.8037704,-27.5308764],[-58.8037491,-27.5307703]]]}},{"type":"Feature","properties":{"id":"M6-L19","block":6,"lot":19},"geometry":{"type":"Polygon","coordinates":[[[-58.8037277,-27.5306642],[-58.8034285,-27.5307115],[-58.8034499,-27.5308177],[-58.8037491,-27.5307703],[-58.8037277,-27.5306642]]]}},{"type":"Feature","properties":{"id":"M6-L20","block":6,"lot":20},"geometry":{"type":"Polygon","coordinates":[[[-58.8037064,-27.5305581],[-58.8034072,-27.5306054],[-58.8034285,-27.5307115],[-58.8037277,-27.5306642],[-58.8037064,-27.5305581]]]}},{"type":"Feature","properties":{"id":"M6-L21","block":6,"lot":21},"geometry":{"type":"Polygon","coordinates":[[[-58.8036558,-27.5303068],[-58.8035361,-27.5303257],[-58.8035859,-27.5305733],[-58.8037056,-27.5305544],[-58.8036558,-27.5303068]]]}},{"type":"Feature","properties":{"id":"M6-L22","block":6,"lot":22},"geometry":{"type":"Polygon","coordinates":[[[-58.8035361,-27.5303257],[-58.8034164,-27.5303447],[-58.8034663,-27.5305923],[-58.8035859,-27.5305733],[-58.8035361,-27.5303257]]]}},{"type":"Feature","properties":{"id":"M6-L23","block":6,"lot":23},"geometry":{"type":"Polygon","coordinates":[[[-58.8034164,-27.5303447],[-58.8032968,-27.5303636],[-58.8033466,-27.5306112],[-58.8034663,-27.5305923],[-58.8034164,-27.5303447]]]}},{"type":"Feature","properties":{"id":"M6-L24","block":6,"lot":24},"geometry":{"type":"Polygon","coordinates":[[[-58.8032968,-27.5303636],[-58.8031771,-27.5303825],[-58.8032269,-27.5306301],[-58.8033466,-27.5306112],[-58.8032968,-27.5303636]]]}},{"type":"Feature","properties":{"id":"M9-L1","block":9,"lot":1},"geometry":{"type":"Polygon","coordinates":[[[-58.8039749,-27.5302563],[-58.8038552,-27.5302752],[-58.8039051,-27.5305228],[-58.8040247,-27.5305039],[-58.8039749,-27.5302563]]]}},{"type":"Feature","properties":{"id":"M9-L2","block":9,"lot":2},"geometry":{"type":"Polygon","coordinates":[[[-58.8042042,-27.5304755],[-58.8039051,-27.5305228],[-58.8039264,-27.530629],[-58.8042256,-27.5305816],[-58.8042042,-27.5304755]]]}},{"type":"Feature","properties":{"id":"M9-L3","block":9,"lot":3},"geometry":{"type":"Polygon","coordinates":[[[-58.8042256,-27.5305816],[-58.8039264,-27.530629],[-58.8039478,-27.5307351],[-58.8042469,-27.5306877],[-58.8042256,-27.5305816]]]}},{"type":"Feature","properties":{"id":"M9-L4","block":9,"lot":4},"geometry":{"type":"Polygon","coordinates":[[[-58.8042469,-27.5306877],[-58.8039478,-27.5307351],[-58.8039691,-27.5308412],[-58.8042683,-27.5307939],[-58.8042469,-27.5306877]]]}},{"type":"Feature","properties":{"id":"M9-L5","block":9,"lot":5},"geometry":{"type":"Polygon","coordinates":[[[-58.8042683,-27.5307939],[-58.8039691,-27.5308412],[-58.8039905,-27.5309473],[-58.8042897,-27.5309],[-58.8042683,-27.5307939]]]}},{"type":"Feature","properties":{"id":"M9-L6","block":9,"lot":6},"geometry":{"type":"Polygon","coordinates":[[[-58.8042897,-27.5309],[-58.8039905,-27.5309473],[-58.8040118,-27.5310534],[-58.804311,-27.5310061],[-58.8042897,-27.5309]]]}},{"type":"Feature","properties":{"id":"M9-L7","block":9,"lot":7},"geometry":{"type":"Polygon","coordinates":[[[-58.804311,-27.5310061],[-58.8040118,-27.5310534],[-58.8040332,-27.5311596],[-58.8043324,-27.5311122],[-58.804311,-27.5310061]]]}},{"type":"Feature","properties":{"id":"M9-L8","block":9,"lot":8},"geometry":{"type":"Polygon","coordinates":[[[-58.8043324,-27.5311122],[-58.8040332,-27.5311596],[-58.8040545,-27.5312657],[-58.8043537,-27.5312184],[-58.8043324,-27.5311122]]]}},{"type":"Feature","properties":{"id":"M9-L9","block":9,"lot":9},"geometry":{"type":"Polygon","coordinates":[[[-58.8041749,-27.5312504],[-58.8040553,-27.5312694],[-58.8041051,-27.531517],[-58.8042248,-27.5314981],[-58.8041749,-27.5312504]]]}},{"type":"Feature","properties":{"id":"M9-L10","block":9,"lot":10},"geometry":{"type":"Polygon","coordinates":[[[-58.8042946,-27.5312315],[-58.8041749,-27.5312504],[-58.8042248,-27.5314981],[-58.8043444,-27.5314791],[-58.8042946,-27.5312315]]]}},{"type":"Feature","properties":{"id":"M9-L11","block":9,"lot":11},"geometry":{"type":"Polygon","coordinates":[[[-58.8044143,-27.5312126],[-58.8042946,-27.5312315],[-58.8043444,-27.5314791],[-58.8044641,-27.5314602],[-58.8044143,-27.5312126]]]}},{"type":"Feature","properties":{"id":"M9-L12","block":9,"lot":12},"geometry":{"type":"Polygon","coordinates":[[[-58.804534,-27.5311936],[-58.8044143,-27.5312126],[-58.8044641,-27.5314602],[-58.8045838,-27.5314412],[-58.804534,-27.5311936]]]}},{"type":"Feature","properties":{"id":"M9-L13","block":9,"lot":13},"geometry":{"type":"Polygon","coordinates":[[[-58.8046536,-27.5311747],[-58.804534,-27.5311936],[-58.8045838,-27.5314412],[-58.8047035,-27.5314223],[-58.8046536,-27.5311747]]]}},{"type":"Feature","properties":{"id":"M9-L14","block":9,"lot":14},"geometry":{"type":"Polygon","coordinates":[[[-58.8046323,-27.5310686],[-58.8043331,-27.5311159],[-58.8043545,-27.531222],[-58.8046536,-27.5311747],[-58.8046323,-27.5310686]]]}},{"type":"Feature","properties":{"id":"M9-L15","block":9,"lot":15},"geometry":{"type":"Polygon","coordinates":[[[-58.8046109,-27.5309625],[-58.8043117,-27.5310098],[-58.8043331,-27.5311159],[-58.8046323,-27.5310686],[-58.8046109,-27.5309625]]]}},{"type":"Feature","properties":{"id":"M9-L16","block":9,"lot":16},"geometry":{"type":"Polygon","coordinates":[[[-58.8045896,-27.5308563],[-58.8042904,-27.5309037],[-58.8043117,-27.5310098],[-58.8046109,-27.5309625],[-58.8045896,-27.5308563]]]}},{"type":"Feature","properties":{"id":"M9-L17","block":9,"lot":17},"geometry":{"type":"Polygon","coordinates":[[[-58.8045682,-27.5307502],[-58.804269,-27.5307976],[-58.8042904,-27.5309037],[-58.8045896,-27.5308563],[-58.8045682,-27.5307502]]]}},{"type":"Feature","properties":{"id":"M9-L18","block":9,"lot":18},"geometry":{"type":"Polygon","coordinates":[[[-58.8045469,-27.5306441],[-58.8042477,-27.5306914],[-58.804269,-27.5307976],[-58.8045682,-27.5307502],[-58.8045469,-27.5306441]]]}},{"type":"Feature","properties":{"id":"M9-L19","block":9,"lot":19},"geometry":{"type":"Polygon","coordinates":[[[-58.8045255,-27.530538],[-58.8042263,-27.5305853],[-58.8042477,-27.5306914],[-58.8045469,-27.5306441],[-58.8045255,-27.530538]]]}},{"type":"Feature","properties":{"id":"M9-L20","block":9,"lot":20},"geometry":{"type":"Polygon","coordinates":[[[-58.8045042,-27.5304318],[-58.804205,-27.5304792],[-58.8042263,-27.5305853],[-58.8045255,-27.530538],[-58.8045042,-27.5304318]]]}},{"type":"Feature","properties":{"id":"M9-L21","block":9,"lot":21},"geometry":{"type":"Polygon","coordinates":[[[-58.8044536,-27.5301805],[-58.8043339,-27.5301995],[-58.8043837,-27.5304471],[-58.8045034,-27.5304282],[-58.8044536,-27.5301805]]]}},{"type":"Feature","properties":{"id":"M9-L22","block":9,"lot":22},"geometry":{"type":"Polygon","coordinates":[[[-58.8043339,-27.5301995],[-58.8042143,-27.5302184],[-58.8042641,-27.530466],[-58.8043837,-27.5304471],[-58.8043339,-27.5301995]]]}},{"type":"Feature","properties":{"id":"M9-L23","block":9,"lot":23},"geometry":{"type":"Polygon","coordinates":[[[-58.8042143,-27.5302184],[-58.8040946,-27.5302374],[-58.8041444,-27.530485],[-58.8042641,-27.530466],[-58.8042143,-27.5302184]]]}},{"type":"Feature","properties":{"id":"M9-L24","block":9,"lot":24},"geometry":{"type":"Polygon","coordinates":[[[-58.8040946,-27.5302374],[-58.8039749,-27.5302563],[-58.8040247,-27.5305039],[-58.8041444,-27.530485],[-58.8040946,-27.5302374]]]}},{"type":"Feature","properties":{"id":"M13-L1","block":13,"lot":1},"geometry":{"type":"Polygon","coordinates":[[[-58.8047727,-27.5301301],[-58.804653,-27.530149],[-58.8047029,-27.5303966],[-58.8048225,-27.5303777],[-58.8047727,-27.5301301]]]}},{"type":"Feature","properties":{"id":"M13-L2","block":13,"lot":2},"geometry":{"type":"Polygon","coordinates":[[[-58.805002,-27.5303493],[-58.8047029,-27.5303966],[-58.8047242,-27.5305027],[-58.8050234,-27.5304554],[-58.805002,-27.5303493]]]}},{"type":"Feature","properties":{"id":"M13-L3","block":13,"lot":3},"geometry":{"type":"Polygon","coordinates":[[[-58.8050234,-27.5304554],[-58.8047242,-27.5305027],[-58.8047456,-27.5306088],[-58.8050448,-27.5305615],[-58.8050234,-27.5304554]]]}},{"type":"Feature","properties":{"id":"M13-L4","block":13,"lot":4},"geometry":{"type":"Polygon","coordinates":[[[-58.8050448,-27.5305615],[-58.8047456,-27.5306088],[-58.8047669,-27.530715],[-58.8050661,-27.5306676],[-58.8050448,-27.5305615]]]}},{"type":"Feature","properties":{"id":"M13-L5","block":13,"lot":5},"geometry":{"type":"Polygon","coordinates":[[[-58.8050661,-27.5306676],[-58.8047669,-27.530715],[-58.8047883,-27.5308211],[-58.8050875,-27.5307738],[-58.8050661,-27.5306676]]]}},{"type":"Feature","properties":{"id":"M13-L6","block":13,"lot":6},"geometry":{"type":"Polygon","coordinates":[[[-58.8050875,-27.5307738],[-58.8047883,-27.5308211],[-58.8048096,-27.5309272],[-58.8051088,-27.5308799],[-58.8050875,-27.5307738]]]}},{"type":"Feature","properties":{"id":"M13-L7","block":13,"lot":7},"geometry":{"type":"Polygon","coordinates":[[[-58.8051088,-27.5308799],[-58.8048096,-27.5309272],[-58.804831,-27.5310333],[-58.8051302,-27.530986],[-58.8051088,-27.5308799]]]}},{"type":"Feature","properties":{"id":"M13-L8","block":13,"lot":8},"geometry":{"type":"Polygon","coordinates":[[[-58.8051302,-27.530986],[-58.804831,-27.5310333],[-58.8048523,-27.5311395],[-58.8051515,-27.5310921],[-58.8051302,-27.530986]]]}},{"type":"Feature","properties":{"id":"M13-L9","block":13,"lot":9},"geometry":{"type":"Polygon","coordinates":[[[-58.8049728,-27.5311242],[-58.8048531,-27.5311431],[-58.8049029,-27.5313908],[-58.8050226,-27.5313718],[-58.8049728,-27.5311242]]]}},{"type":"Feature","properties":{"id":"M13-L10","block":13,"lot":10},"geometry":{"type":"Polygon","coordinates":[[[-58.8050924,-27.5311053],[-58.8049728,-27.5311242],[-58.8050226,-27.5313718],[-58.8051423,-27.5313529],[-58.8050924,-27.5311053]]]}},{"type":"Feature","properties":{"id":"M13-L11","block":13,"lot":11},"geometry":{"type":"Polygon","coordinates":[[[-58.8052121,-27.5310863],[-58.8050924,-27.5311053],[-58.8051423,-27.5313529],[-58.8052619,-27.5313339],[-58.8052121,-27.5310863]]]}},{"type":"Feature","properties":{"id":"M13-L12","block":13,"lot":12},"geometry":{"type":"Polygon","coordinates":[[[-58.8053318,-27.5310674],[-58.8052121,-27.5310863],[-58.8052619,-27.5313339],[-58.8053816,-27.531315],[-58.8053318,-27.5310674]]]}},{"type":"Feature","properties":{"id":"M13-L13","block":13,"lot":13},"geometry":{"type":"Polygon","coordinates":[[[-58.8054514,-27.5310485],[-58.8053318,-27.5310674],[-58.8053816,-27.531315],[-58.8055013,-27.5312961],[-58.8054514,-27.5310485]]]}},{"type":"Feature","properties":{"id":"M13-L14","block":13,"lot":14},"geometry":{"type":"Polygon","coordinates":[[[-58.8054301,-27.5309423],[-58.8051309,-27.5309897],[-58.8051523,-27.5310958],[-58.8054514,-27.5310485],[-58.8054301,-27.5309423]]]}},{"type":"Feature","properties":{"id":"M13-L15","block":13,"lot":15},"geometry":{"type":"Polygon","coordinates":[[[-58.8054087,-27.5308362],[-58.8051096,-27.5308836],[-58.8051309,-27.5309897],[-58.8054301,-27.5309423],[-58.8054087,-27.5308362]]]}},{"type":"Feature","properties":{"id":"M13-L16","block":13,"lot":16},"geometry":{"type":"Polygon","coordinates":[[[-58.8053874,-27.5307301],[-58.8050882,-27.5307774],[-58.8051096,-27.5308836],[-58.8054087,-27.5308362],[-58.8053874,-27.5307301]]]}},{"type":"Feature","properties":{"id":"M13-L17","block":13,"lot":17},"geometry":{"type":"Polygon","coordinates":[[[-58.805366,-27.530624],[-58.8050668,-27.5306713],[-58.8050882,-27.5307774],[-58.8053874,-27.5307301],[-58.805366,-27.530624]]]}},{"type":"Feature","properties":{"id":"M13-L18","block":13,"lot":18},"geometry":{"type":"Polygon","coordinates":[[[-58.8053447,-27.5305179],[-58.8050455,-27.5305652],[-58.8050668,-27.5306713],[-58.805366,-27.530624],[-58.8053447,-27.5305179]]]}},{"type":"Feature","properties":{"id":"M13-L19","block":13,"lot":19},"geometry":{"type":"Polygon","coordinates":[[[-58.8053233,-27.5304117],[-58.8050241,-27.5304591],[-58.8050455,-27.5305652],[-58.8053447,-27.5305179],[-58.8053233,-27.5304117]]]}},{"type":"Feature","properties":{"id":"M13-L20","block":13,"lot":20},"geometry":{"type":"Polygon","coordinates":[[[-58.805302,-27.5303056],[-58.8050028,-27.530353],[-58.8050241,-27.5304591],[-58.8053233,-27.5304117],[-58.805302,-27.5303056]]]}},{"type":"Feature","properties":{"id":"M13-L21","block":13,"lot":21},"geometry":{"type":"Polygon","coordinates":[[[-58.8052514,-27.5300543],[-58.8051317,-27.5300732],[-58.8051816,-27.5303209],[-58.8053012,-27.5303019],[-58.8052514,-27.5300543]]]}},{"type":"Feature","properties":{"id":"M13-L22","block":13,"lot":22},"geometry":{"type":"Polygon","coordinates":[[[-58.8051317,-27.5300732],[-58.8050121,-27.5300922],[-58.8050619,-27.5303398],[-58.8051816,-27.5303209],[-58.8051317,-27.5300732]]]}},{"type":"Feature","properties":{"id":"M13-L23","block":13,"lot":23},"geometry":{"type":"Polygon","coordinates":[[[-58.8050121,-27.5300922],[-58.8048924,-27.5301111],[-58.8049422,-27.5303587],[-58.8050619,-27.5303398],[-58.8050121,-27.5300922]]]}},{"type":"Feature","properties":{"id":"M13-L24","block":13,"lot":24},"geometry":{"type":"Polygon","coordinates":[[[-58.8048924,-27.5301111],[-58.8047727,-27.5301301],[-58.8048225,-27.5303777],[-58.8049422,-27.5303587],[-58.8048924,-27.5301111]]]}},{"type":"Feature","properties":{"id":"M11-L1","block":11,"lot":1},"geometry":{"type":"Polygon","coordinates":[[[-58.8047436,-27.5338949],[-58.8045885,-27.5339195],[-58.8046423,-27.5341866],[-58.8047974,-27.5341621],[-58.8047436,-27.5338949]]]}},{"type":"Feature","properties":{"id":"M11-L2","block":11,"lot":2},"geometry":{"type":"Polygon","coordinates":[[[-58.8047974,-27.5341621],[-58.8046423,-27.5341866],[-58.804696,-27.5344537],[-58.8048511,-27.5344292],[-58.8047974,-27.5341621]]]}},{"type":"Feature","properties":{"id":"M11-L3","block":11,"lot":3},"geometry":{"type":"Polygon","coordinates":[[[-58.8049525,-27.5341375],[-58.8047974,-27.5341621],[-58.8048511,-27.5344292],[-58.8050063,-27.5344047],[-58.8049525,-27.5341375]]]}},{"type":"Feature","properties":{"id":"M11-L4","block":11,"lot":4},"geometry":{"type":"Polygon","coordinates":[[[-58.8051077,-27.534113],[-58.8049525,-27.5341375],[-58.8050063,-27.5344047],[-58.8051614,-27.5343801],[-58.8051077,-27.534113]]]}},{"type":"Feature","properties":{"id":"M11-L5","block":11,"lot":5},"geometry":{"type":"Polygon","coordinates":[[[-58.8052628,-27.5340884],[-58.8051077,-27.534113],[-58.8051614,-27.5343801],[-58.8053165,-27.5343556],[-58.8052628,-27.5340884]]]}},{"type":"Feature","properties":{"id":"M11-L6","block":11,"lot":6},"geometry":{"type":"Polygon","coordinates":[[[-58.8054179,-27.5340639],[-58.8052628,-27.5340884],[-58.8053165,-27.5343556],[-58.8054717,-27.534331],[-58.8054179,-27.5340639]]]}},{"type":"Feature","properties":{"id":"M11-L7","block":11,"lot":7},"geometry":{"type":"Polygon","coordinates":[[[-58.805573,-27.5340393],[-58.8054179,-27.5340639],[-58.8054717,-27.534331],[-58.8056268,-27.5343065],[-58.805573,-27.5340393]]]}},{"type":"Feature","properties":{"id":"M11-L8","block":11,"lot":8},"geometry":{"type":"Polygon","coordinates":[[[-58.8057282,-27.5340148],[-58.805573,-27.5340393],[-58.8056268,-27.5343065],[-58.8057819,-27.5342819],[-58.8057282,-27.5340148]]]}},{"type":"Feature","properties":{"id":"M11-L9","block":11,"lot":9},"geometry":{"type":"Polygon","coordinates":[[[-58.8058833,-27.5339902],[-58.8057282,-27.5340148],[-58.8057819,-27.5342819],[-58.8059371,-27.5342574],[-58.8058833,-27.5339902]]]}},{"type":"Feature","properties":{"id":"M11-L10","block":11,"lot":10},"geometry":{"type":"Polygon","coordinates":[[[-58.8060384,-27.5339657],[-58.8058833,-27.5339902],[-58.8059371,-27.5342574],[-58.8060922,-27.5342328],[-58.8060384,-27.5339657]]]}},{"type":"Feature","properties":{"id":"M11-L11","block":11,"lot":11},"geometry":{"type":"Polygon","coordinates":[[[-58.8059847,-27.5336985],[-58.8058296,-27.5337231],[-58.8058833,-27.5339902],[-58.8060384,-27.5339657],[-58.8059847,-27.5336985]]]}},{"type":"Feature","properties":{"id":"M11-L12","block":11,"lot":12},"geometry":{"type":"Polygon","coordinates":[[[-58.8058296,-27.5337231],[-58.8056744,-27.5337476],[-58.8057282,-27.5340148],[-58.8058833,-27.5339902],[-58.8058296,-27.5337231]]]}},{"type":"Feature","properties":{"id":"M11-L13","block":11,"lot":13},"geometry":{"type":"Polygon","coordinates":[[[-58.8056744,-27.5337476],[-58.8055193,-27.5337722],[-58.805573,-27.5340393],[-58.8057282,-27.5340148],[-58.8056744,-27.5337476]]]}},{"type":"Feature","properties":{"id":"M11-L14","block":11,"lot":14},"geometry":{"type":"Polygon","coordinates":[[[-58.8055193,-27.5337722],[-58.8053642,-27.5337967],[-58.8054179,-27.5340639],[-58.805573,-27.5340393],[-58.8055193,-27.5337722]]]}},{"type":"Feature","properties":{"id":"M11-L15","block":11,"lot":15},"geometry":{"type":"Polygon","coordinates":[[[-58.8053642,-27.5337967],[-58.805209,-27.5338213],[-58.8052628,-27.5340884],[-58.8054179,-27.5340639],[-58.8053642,-27.5337967]]]}},{"type":"Feature","properties":{"id":"M11-L16","block":11,"lot":16},"geometry":{"type":"Polygon","coordinates":[[[-58.805209,-27.5338213],[-58.8050539,-27.5338458],[-58.8051077,-27.534113],[-58.8052628,-27.5340884],[-58.805209,-27.5338213]]]}},{"type":"Feature","properties":{"id":"M11-L17","block":11,"lot":17},"geometry":{"type":"Polygon","coordinates":[[[-58.8050539,-27.5338458],[-58.8048988,-27.5338704],[-58.8049525,-27.5341375],[-58.8051077,-27.534113],[-58.8050539,-27.5338458]]]}},{"type":"Feature","properties":{"id":"M11-L18","block":11,"lot":18},"geometry":{"type":"Polygon","coordinates":[[[-58.8048988,-27.5338704],[-58.8047436,-27.5338949],[-58.8047974,-27.5341621],[-58.8049525,-27.5341375],[-58.8048988,-27.5338704]]]}},{"type":"Feature","properties":{"id":"M4-L1","block":4,"lot":1},"geometry":{"type":"Polygon","coordinates":[[[-58.8032671,-27.5341285],[-58.802968,-27.5341759],[-58.8029948,-27.5343094],[-58.803294,-27.5342621],[-58.8032671,-27.5341285]]]}},{"type":"Feature","properties":{"id":"M4-L2","block":4,"lot":2},"geometry":{"type":"Polygon","coordinates":[[[-58.803294,-27.5342621],[-58.8029948,-27.5343094],[-58.8030217,-27.534443],[-58.8033209,-27.5343957],[-58.803294,-27.5342621]]]}},{"type":"Feature","properties":{"id":"M4-L3","block":4,"lot":3},"geometry":{"type":"Polygon","coordinates":[[[-58.8033209,-27.5343957],[-58.8030217,-27.534443],[-58.8030486,-27.5345766],[-58.8033478,-27.5345293],[-58.8033209,-27.5343957]]]}},{"type":"Feature","properties":{"id":"M4-L4","block":4,"lot":4},"geometry":{"type":"Polygon","coordinates":[[[-58.8033478,-27.5345293],[-58.8030486,-27.5345766],[-58.8030755,-27.5347102],[-58.8033747,-27.5346628],[-58.8033478,-27.5345293]]]}},{"type":"Feature","properties":{"id":"M4-L5","block":4,"lot":5},"geometry":{"type":"Polygon","coordinates":[[[-58.8034812,-27.5343703],[-58.8033209,-27.5343957],[-58.8033747,-27.5346628],[-58.8035349,-27.5346375],[-58.8034812,-27.5343703]]]}},{"type":"Feature","properties":{"id":"M4-L6","block":4,"lot":6},"geometry":{"type":"Polygon","coordinates":[[[-58.8036414,-27.534345],[-58.8034812,-27.5343703],[-58.8035349,-27.5346375],[-58.8036952,-27.5346121],[-58.8036414,-27.534345]]]}},{"type":"Feature","properties":{"id":"M4-L7","block":4,"lot":7},"geometry":{"type":"Polygon","coordinates":[[[-58.8038017,-27.5343196],[-58.8036414,-27.534345],[-58.8036952,-27.5346121],[-58.8038555,-27.5345868],[-58.8038017,-27.5343196]]]}},{"type":"Feature","properties":{"id":"M4-L8","block":4,"lot":8},"geometry":{"type":"Polygon","coordinates":[[[-58.803962,-27.5342942],[-58.8038017,-27.5343196],[-58.8038555,-27.5345868],[-58.8040158,-27.5345614],[-58.803962,-27.5342942]]]}},{"type":"Feature","properties":{"id":"M4-L9","block":4,"lot":9},"geometry":{"type":"Polygon","coordinates":[[[-58.8041223,-27.5342689],[-58.803962,-27.5342942],[-58.8040158,-27.5345614],[-58.804176,-27.534536],[-58.8041223,-27.5342689]]]}},{"type":"Feature","properties":{"id":"M4-L10","block":4,"lot":10},"geometry":{"type":"Polygon","coordinates":[[[-58.8042826,-27.5342435],[-58.8041223,-27.5342689],[-58.804176,-27.534536],[-58.8043363,-27.5345107],[-58.8042826,-27.5342435]]]}},{"type":"Feature","properties":{"id":"M4-L11","block":4,"lot":11},"geometry":{"type":"Polygon","coordinates":[[[-58.8044428,-27.5342182],[-58.8042826,-27.5342435],[-58.8043363,-27.5345107],[-58.8044966,-27.5344853],[-58.8044428,-27.5342182]]]}},{"type":"Feature","properties":{"id":"M4-L12","block":4,"lot":12},"geometry":{"type":"Polygon","coordinates":[[[-58.8043891,-27.533951],[-58.8042288,-27.5339764],[-58.8042826,-27.5342435],[-58.8044428,-27.5342182],[-58.8043891,-27.533951]]]}},{"type":"Feature","properties":{"id":"M4-L13","block":4,"lot":13},"geometry":{"type":"Polygon","coordinates":[[[-58.8042288,-27.5339764],[-58.8040685,-27.5340017],[-58.8041223,-27.5342689],[-58.8042826,-27.5342435],[-58.8042288,-27.5339764]]]}},{"type":"Feature","properties":{"id":"M4-L14","block":4,"lot":14},"geometry":{"type":"Polygon","coordinates":[[[-58.8040685,-27.5340017],[-58.8039083,-27.5340271],[-58.803962,-27.5342942],[-58.8041223,-27.5342689],[-58.8040685,-27.5340017]]]}},{"type":"Feature","properties":{"id":"M4-L15","block":4,"lot":15},"geometry":{"type":"Polygon","coordinates":[[[-58.8039083,-27.5340271],[-58.803748,-27.5340525],[-58.8038017,-27.5343196],[-58.803962,-27.5342942],[-58.8039083,-27.5340271]]]}},{"type":"Feature","properties":{"id":"M4-L16","block":4,"lot":16},"geometry":{"type":"Polygon","coordinates":[[[-58.803748,-27.5340525],[-58.8035877,-27.5340778],[-58.8036414,-27.534345],[-58.8038017,-27.5343196],[-58.803748,-27.5340525]]]}},{"type":"Feature","properties":{"id":"M4-L17","block":4,"lot":17},"geometry":{"type":"Polygon","coordinates":[[[-58.8035877,-27.5340778],[-58.8034274,-27.5341032],[-58.8034812,-27.5343703],[-58.8036414,-27.534345],[-58.8035877,-27.5340778]]]}},{"type":"Feature","properties":{"id":"M4-L18","block":4,"lot":18},"geometry":{"type":"Polygon","coordinates":[[[-58.8034274,-27.5341032],[-58.8032671,-27.5341285],[-58.8033209,-27.5343957],[-58.8034812,-27.5343703],[-58.8034274,-27.5341032]]]}},{"type":"Feature","properties":{"id":"M1-L18","block":1,"lot":18},"geometry":{"type":"Polygon","coordinates":[[[-58.8025718,-27.5290107],[-58.8024222,-27.5290344],[-58.8024791,-27.5293174],[-58.8026287,-27.5292937],[-58.8025718,-27.5290107]]]}},{"type":"Feature","properties":{"id":"M1-L19","block":1,"lot":19},"geometry":{"type":"Polygon","coordinates":[[[-58.8024222,-27.5290344],[-58.8022726,-27.529058],[-58.8023296,-27.529341],[-58.8024791,-27.5293174],[-58.8024222,-27.5290344]]]}},{"type":"Feature","properties":{"id":"M1-L20","block":1,"lot":20},"geometry":{"type":"Polygon","coordinates":[[[-58.8022726,-27.529058],[-58.8021106,-27.5290837],[-58.8021675,-27.5293667],[-58.8023296,-27.529341],[-58.8022726,-27.529058]]]}},{"type":"Feature","properties":{"id":"M1-L1","block":1,"lot":1},"geometry":{"type":"Polygon","coordinates":[[[-58.8021106,-27.5290837],[-58.8019485,-27.5291093],[-58.8020054,-27.5293923],[-58.8021675,-27.5293667],[-58.8021106,-27.5290837]]]}},{"type":"Feature","properties":{"id":"M1-L17","block":1,"lot":17},"geometry":{"type":"Polygon","coordinates":[[[-58.8026287,-27.5292937],[-58.8023296,-27.529341],[-58.8023511,-27.529448],[-58.8026502,-27.5294006],[-58.8026287,-27.5292937]]]}},{"type":"Feature","properties":{"id":"M1-L16","block":1,"lot":16},"geometry":{"type":"Polygon","coordinates":[[[-58.8026502,-27.5294006],[-58.8023511,-27.529448],[-58.8023726,-27.5295549],[-58.8026718,-27.5295076],[-58.8026502,-27.5294006]]]}},{"type":"Feature","properties":{"id":"M1-L15","block":1,"lot":15},"geometry":{"type":"Polygon","coordinates":[[[-58.8026718,-27.5295076],[-58.8023726,-27.5295549],[-58.8023941,-27.5296619],[-58.8026933,-27.5296145],[-58.8026718,-27.5295076]]]}},{"type":"Feature","properties":{"id":"M1-L14","block":1,"lot":14},"geometry":{"type":"Polygon","coordinates":[[[-58.8026933,-27.5296145],[-58.8023941,-27.5296619],[-58.8024156,-27.5297688],[-58.8027148,-27.5297215],[-58.8026933,-27.5296145]]]}},{"type":"Feature","properties":{"id":"M1-L13","block":1,"lot":13},"geometry":{"type":"Polygon","coordinates":[[[-58.8027148,-27.5297215],[-58.8024156,-27.5297688],[-58.8024371,-27.5298757],[-58.8027363,-27.5298284],[-58.8027148,-27.5297215]]]}},{"type":"Feature","properties":{"id":"M1-L12","block":1,"lot":12},"geometry":{"type":"Polygon","coordinates":[[[-58.8027363,-27.5298284],[-58.8024371,-27.5298757],[-58.8024587,-27.5299827],[-58.8027578,-27.5299353],[-58.8027363,-27.5298284]]]}},{"type":"Feature","properties":{"id":"M1-L11","block":1,"lot":11},"geometry":{"type":"Polygon","coordinates":[[[-58.8027578,-27.5299353],[-58.8024587,-27.5299827],[-58.8024802,-27.5300896],[-58.8027794,-27.5300423],[-58.8027578,-27.5299353]]]}},{"type":"Feature","properties":{"id":"M1-L10","block":1,"lot":10},"geometry":{"type":"Polygon","coordinates":[[[-58.8027794,-27.5300423],[-58.8024802,-27.5300896],[-58.8025017,-27.5301966],[-58.8028009,-27.5301492],[-58.8027794,-27.5300423]]]}},{"type":"Feature","properties":{"id":"M1-L9","block":1,"lot":9},"geometry":{"type":"Polygon","coordinates":[[[-58.8028009,-27.5301492],[-58.8025017,-27.5301966],[-58.8025232,-27.5303035],[-58.8028224,-27.5302562],[-58.8028009,-27.5301492]]]}},{"type":"Feature","properties":{"id":"M1-L2","block":1,"lot":2},"geometry":{"type":"Polygon","coordinates":[[[-58.8023296,-27.529341],[-58.8020054,-27.5293923],[-58.8020331,-27.5295298],[-58.8023572,-27.5294785],[-58.8023296,-27.529341]]]}},{"type":"Feature","properties":{"id":"M1-L3","block":1,"lot":3},"geometry":{"type":"Polygon","coordinates":[[[-58.8023572,-27.5294785],[-58.8020331,-27.5295298],[-58.8020608,-27.5296673],[-58.8023849,-27.529616],[-58.8023572,-27.5294785]]]}},{"type":"Feature","properties":{"id":"M1-L4","block":1,"lot":4},"geometry":{"type":"Polygon","coordinates":[[[-58.8023849,-27.529616],[-58.8020608,-27.5296673],[-58.8020884,-27.5298048],[-58.8024125,-27.5297535],[-58.8023849,-27.529616]]]}},{"type":"Feature","properties":{"id":"M1-L5","block":1,"lot":5},"geometry":{"type":"Polygon","coordinates":[[[-58.8024125,-27.5297535],[-58.8020884,-27.5298048],[-58.8021161,-27.5299423],[-58.8024402,-27.529891],[-58.8024125,-27.5297535]]]}},{"type":"Feature","properties":{"id":"M1-L6","block":1,"lot":6},"geometry":{"type":"Polygon","coordinates":[[[-58.8024402,-27.529891],[-58.8021161,-27.5299423],[-58.8021438,-27.5300798],[-58.8024679,-27.5300285],[-58.8024402,-27.529891]]]}},{"type":"Feature","properties":{"id":"M1-L7","block":1,"lot":7},"geometry":{"type":"Polygon","coordinates":[[[-58.8024679,-27.5300285],[-58.8021438,-27.5300798],[-58.8021714,-27.5302173],[-58.8024956,-27.530166],[-58.8024679,-27.5300285]]]}},{"type":"Feature","properties":{"id":"M1-L8","block":1,"lot":8},"geometry":{"type":"Polygon","coordinates":[[[-58.8024956,-27.530166],[-58.8021714,-27.5302173],[-58.8021991,-27.5303548],[-58.8025232,-27.5303035],[-58.8024956,-27.530166]]]}},{"type":"Feature","properties":{"id":"M2-L20","block":2,"lot":20},"geometry":{"type":"Polygon","coordinates":[[[-58.802858,-27.530433],[-58.8025588,-27.5304804],[-58.8025873,-27.5306219],[-58.8028865,-27.5305745],[-58.802858,-27.530433]]]}},{"type":"Feature","properties":{"id":"M2-L1","block":2,"lot":1},"geometry":{"type":"Polygon","coordinates":[[[-58.8025588,-27.5304804],[-58.8022347,-27.5305316],[-58.8022632,-27.5306731],[-58.8025873,-27.5306219],[-58.8025588,-27.5304804]]]}},{"type":"Feature","properties":{"id":"M2-L10","block":2,"lot":10},"geometry":{"type":"Polygon","coordinates":[[[-58.8030794,-27.5315333],[-58.8027802,-27.5315806],[-58.8028087,-27.5317221],[-58.8031078,-27.5316748],[-58.8030794,-27.5315333]]]}},{"type":"Feature","properties":{"id":"M2-L9","block":2,"lot":9},"geometry":{"type":"Polygon","coordinates":[[[-58.8027802,-27.5315806],[-58.8024561,-27.5316319],[-58.8024846,-27.5317734],[-58.8028087,-27.5317221],[-58.8027802,-27.5315806]]]}},{"type":"Feature","properties":{"id":"M2-L19","block":2,"lot":19},"geometry":{"type":"Polygon","coordinates":[[[-58.8028865,-27.5305745],[-58.8025873,-27.5306219],[-58.8026087,-27.5307284],[-58.8029079,-27.530681],[-58.8028865,-27.5305745]]]}},{"type":"Feature","properties":{"id":"M2-L18","block":2,"lot":18},"geometry":{"type":"Polygon","coordinates":[[[-58.8029079,-27.530681],[-58.8026087,-27.5307284],[-58.8026301,-27.5308349],[-58.8029293,-27.5307876],[-58.8029079,-27.530681]]]}},{"type":"Feature","properties":{"id":"M2-L17","block":2,"lot":17},"geometry":{"type":"Polygon","coordinates":[[[-58.8029293,-27.5307876],[-58.8026301,-27.5308349],[-58.8026516,-27.5309414],[-58.8029508,-27.5308941],[-58.8029293,-27.5307876]]]}},{"type":"Feature","properties":{"id":"M2-L16","block":2,"lot":16},"geometry":{"type":"Polygon","coordinates":[[[-58.8029508,-27.5308941],[-58.8026516,-27.5309414],[-58.802673,-27.531048],[-58.8029722,-27.5310006],[-58.8029508,-27.5308941]]]}},{"type":"Feature","properties":{"id":"M2-L15","block":2,"lot":15},"geometry":{"type":"Polygon","coordinates":[[[-58.8029722,-27.5310006],[-58.802673,-27.531048],[-58.8026945,-27.5311545],[-58.8029936,-27.5311072],[-58.8029722,-27.5310006]]]}},{"type":"Feature","properties":{"id":"M2-L14","block":2,"lot":14},"geometry":{"type":"Polygon","coordinates":[[[-58.8029936,-27.5311072],[-58.8026945,-27.5311545],[-58.8027159,-27.5312611],[-58.8030151,-27.5312137],[-58.8029936,-27.5311072]]]}},{"type":"Feature","properties":{"id":"M2-L13","block":2,"lot":13},"geometry":{"type":"Polygon","coordinates":[[[-58.8030151,-27.5312137],[-58.8027159,-27.5312611],[-58.8027373,-27.5313676],[-58.8030365,-27.5313202],[-58.8030151,-27.5312137]]]}},{"type":"Feature","properties":{"id":"M2-L12","block":2,"lot":12},"geometry":{"type":"Polygon","coordinates":[[[-58.8030365,-27.5313202],[-58.8027373,-27.5313676],[-58.8027588,-27.5314741],[-58.8030579,-27.5314268],[-58.8030365,-27.5313202]]]}},{"type":"Feature","properties":{"id":"M2-L11","block":2,"lot":11},"geometry":{"type":"Polygon","coordinates":[[[-58.8030579,-27.5314268],[-58.8027588,-27.5314741],[-58.8027802,-27.5315806],[-58.8030794,-27.5315333],[-58.8030579,-27.5314268]]]}},{"type":"Feature","properties":{"id":"M2-L2","block":2,"lot":2},"geometry":{"type":"Polygon","coordinates":[[[-58.8025873,-27.5306219],[-58.8022632,-27.5306731],[-58.8022907,-27.5308101],[-58.8026148,-27.5307588],[-58.8025873,-27.5306219]]]}},{"type":"Feature","properties":{"id":"M2-L3","block":2,"lot":3},"geometry":{"type":"Polygon","coordinates":[[[-58.8026148,-27.5307588],[-58.8022907,-27.5308101],[-58.8023183,-27.5309471],[-58.8026424,-27.5308958],[-58.8026148,-27.5307588]]]}},{"type":"Feature","properties":{"id":"M2-L4","block":2,"lot":4},"geometry":{"type":"Polygon","coordinates":[[[-58.8026424,-27.5308958],[-58.8023183,-27.5309471],[-58.8023458,-27.531084],[-58.80267,-27.5310327],[-58.8026424,-27.5308958]]]}},{"type":"Feature","properties":{"id":"M2-L5","block":2,"lot":5},"geometry":{"type":"Polygon","coordinates":[[[-58.80267,-27.5310327],[-58.8023458,-27.531084],[-58.8023734,-27.531221],[-58.8026975,-27.5311697],[-58.80267,-27.5310327]]]}},{"type":"Feature","properties":{"id":"M2-L6","block":2,"lot":6},"geometry":{"type":"Polygon","coordinates":[[[-58.8026975,-27.5311697],[-58.8023734,-27.531221],[-58.802401,-27.531358],[-58.8027251,-27.5313067],[-58.8026975,-27.5311697]]]}},{"type":"Feature","properties":{"id":"M2-L7","block":2,"lot":7},"geometry":{"type":"Polygon","coordinates":[[[-58.8027251,-27.5313067],[-58.802401,-27.531358],[-58.8024285,-27.531495],[-58.8027526,-27.5314437],[-58.8027251,-27.5313067]]]}},{"type":"Feature","properties":{"id":"M2-L8","block":2,"lot":8},"geometry":{"type":"Polygon","coordinates":[[[-58.8027526,-27.5314437],[-58.8024285,-27.531495],[-58.8024561,-27.5316319],[-58.8027802,-27.5315806],[-58.8027526,-27.5314437]]]}},{"type":"Feature","properties":{"id":"M3-L20","block":3,"lot":20},"geometry":{"type":"Polygon","coordinates":[[[-58.8031442,-27.5318553],[-58.802845,-27.5319027],[-58.8028664,-27.5320092],[-58.8031656,-27.5319619],[-58.8031442,-27.5318553]]]}},{"type":"Feature","properties":{"id":"M3-L19","block":3,"lot":19},"geometry":{"type":"Polygon","coordinates":[[[-58.8031656,-27.5319619],[-58.8028664,-27.5320092],[-58.8028879,-27.5321157],[-58.803187,-27.5320684],[-58.8031656,-27.5319619]]]}},{"type":"Feature","properties":{"id":"M3-L18","block":3,"lot":18},"geometry":{"type":"Polygon","coordinates":[[[-58.803187,-27.5320684],[-58.8028879,-27.5321157],[-58.8029093,-27.5322223],[-58.8032085,-27.5321749],[-58.803187,-27.5320684]]]}},{"type":"Feature","properties":{"id":"M3-L17","block":3,"lot":17},"geometry":{"type":"Polygon","coordinates":[[[-58.8032085,-27.5321749],[-58.8029093,-27.5322223],[-58.8029307,-27.5323288],[-58.8032299,-27.5322814],[-58.8032085,-27.5321749]]]}},{"type":"Feature","properties":{"id":"M3-L16","block":3,"lot":16},"geometry":{"type":"Polygon","coordinates":[[[-58.8032299,-27.5322814],[-58.8029307,-27.5323288],[-58.8029522,-27.5324353],[-58.8032514,-27.532388],[-58.8032299,-27.5322814]]]}},{"type":"Feature","properties":{"id":"M3-L15","block":3,"lot":15},"geometry":{"type":"Polygon","coordinates":[[[-58.8032514,-27.532388],[-58.8029522,-27.5324353],[-58.8029736,-27.5325419],[-58.8032728,-27.5324945],[-58.8032514,-27.532388]]]}},{"type":"Feature","properties":{"id":"M3-L14","block":3,"lot":14},"geometry":{"type":"Polygon","coordinates":[[[-58.8032728,-27.5324945],[-58.8029736,-27.5325419],[-58.802995,-27.5326484],[-58.8032942,-27.5326011],[-58.8032728,-27.5324945]]]}},{"type":"Feature","properties":{"id":"M3-L13","block":3,"lot":13},"geometry":{"type":"Polygon","coordinates":[[[-58.8032942,-27.5326011],[-58.802995,-27.5326484],[-58.8030165,-27.5327549],[-58.8033157,-27.5327076],[-58.8032942,-27.5326011]]]}},{"type":"Feature","properties":{"id":"M3-L12","block":3,"lot":12},"geometry":{"type":"Polygon","coordinates":[[[-58.8033157,-27.5327076],[-58.8030165,-27.5327549],[-58.8030379,-27.5328615],[-58.8033371,-27.5328141],[-58.8033157,-27.5327076]]]}},{"type":"Feature","properties":{"id":"M3-L1","block":3,"lot":1},"geometry":{"type":"Polygon","coordinates":[[[-58.802845,-27.5319027],[-58.8025209,-27.531954],[-58.8025484,-27.5320909],[-58.8028726,-27.5320396],[-58.802845,-27.5319027]]]}},{"type":"Feature","properties":{"id":"M3-L2","block":3,"lot":2},"geometry":{"type":"Polygon","coordinates":[[[-58.8028726,-27.5320396],[-58.8025484,-27.5320909],[-58.802576,-27.5322279],[-58.8029001,-27.5321766],[-58.8028726,-27.5320396]]]}},{"type":"Feature","properties":{"id":"M3-L3","block":3,"lot":3},"geometry":{"type":"Polygon","coordinates":[[[-58.8029001,-27.5321766],[-58.802576,-27.5322279],[-58.8026036,-27.5323649],[-58.8029277,-27.5323136],[-58.8029001,-27.5321766]]]}},{"type":"Feature","properties":{"id":"M3-L4","block":3,"lot":4},"geometry":{"type":"Polygon","coordinates":[[[-58.8029277,-27.5323136],[-58.8026036,-27.5323649],[-58.8026311,-27.5325019],[-58.8029552,-27.5324506],[-58.8029277,-27.5323136]]]}},{"type":"Feature","properties":{"id":"M3-L5","block":3,"lot":5},"geometry":{"type":"Polygon","coordinates":[[[-58.8029552,-27.5324506],[-58.8026311,-27.5325019],[-58.8026587,-27.5326388],[-58.8029828,-27.5325875],[-58.8029552,-27.5324506]]]}},{"type":"Feature","properties":{"id":"M3-L6","block":3,"lot":6},"geometry":{"type":"Polygon","coordinates":[[[-58.8029828,-27.5325875],[-58.8026587,-27.5326388],[-58.8026863,-27.5327758],[-58.8030104,-27.5327245],[-58.8029828,-27.5325875]]]}},{"type":"Feature","properties":{"id":"M3-L7","block":3,"lot":7},"geometry":{"type":"Polygon","coordinates":[[[-58.8030104,-27.5327245],[-58.8026863,-27.5327758],[-58.8027138,-27.5329127],[-58.8030379,-27.5328615],[-58.8030104,-27.5327245]]]}},{"type":"Feature","properties":{"id":"M3-L11","block":3,"lot":11},"geometry":{"type":"Polygon","coordinates":[[[-58.8033371,-27.5328141],[-58.8031875,-27.5328378],[-58.8032444,-27.5331208],[-58.803394,-27.5330971],[-58.8033371,-27.5328141]]]}},{"type":"Feature","properties":{"id":"M3-L10","block":3,"lot":10},"geometry":{"type":"Polygon","coordinates":[[[-58.8031875,-27.5328378],[-58.8030379,-27.5328615],[-58.8030949,-27.5331444],[-58.8032444,-27.5331208],[-58.8031875,-27.5328378]]]}},{"type":"Feature","properties":{"id":"M3-L9","block":3,"lot":9},"geometry":{"type":"Polygon","coordinates":[[[-58.8030379,-27.5328615],[-58.8028759,-27.5328871],[-58.8029328,-27.5331701],[-58.8030949,-27.5331444],[-58.8030379,-27.5328615]]]}},{"type":"Feature","properties":{"id":"M3-L8","block":3,"lot":8},"geometry":{"type":"Polygon","coordinates":[[[-58.8028759,-27.5328871],[-58.8027138,-27.5329127],[-58.8027708,-27.5331957],[-58.8029328,-27.5331701],[-58.8028759,-27.5328871]]]}}]}